NORAD_CAT_ID,OBJECT_NAME,OBJECT_TYPE,EPOCH,MEAN_MOTION,ECCENTRICITY,INCLINATION,RA_OF_ASC_NODE,ARG_OF_PERICENTER,MEAN_ANOMALY,BSTAR,MEAN_MOTION_DOT,MEAN_MOTION_DDOT,TLE_LINE0,TLE_LINE1,TLE_LINE2,SEMIMAJOR_AXIS,PERIOD,APOGEE,PERIGEE,DECAYED
55939.0,STARLINK-5918,PAYLOAD,2024-07-31 13:19:16,14.98316706,0.0002513,70.001,322.2817,256.4572,103.6307,5.3176e-05,5.41e-06,0.0,0 STARLINK-5918,1 55939U 23037AB  24213.55505280  .00000541  00000-0  53176-4 0  9994,2 55939  70.0010 322.2817 0002513 256.4572 103.6307 14.98316706 76523,6950.234,96.108,573.846,570.352,0.0
55939.0,STARLINK-5918,PAYLOAD,2024-07-31 14:55:24,14.98321939,0.0002584,70.0017,322.1146,263.0785,97.008,-0.00010462,-1.341e-05,0.0,0 STARLINK-5918,1 55939U 23037AB  24213.62181440 -.00001341  00000-0 -10462-3 0  9991,2 55939  70.0017 322.1146 0002584 263.0785  97.0080 14.98321939 76193,6950.218,96.108,573.879,570.287,0.0
55939.0,STARLINK-5918,PAYLOAD,2024-07-31 16:31:32,14.98321601,0.0002596,70.0018,321.9452,260.7924,99.2942,-5.7585e-05,-7.8e-06,0.0,0 STARLINK-5918,1 55939U 23037AB  24213.68857349 -.00000780  00000-0 -57585-4 0  9999,2 55939  70.0018 321.9452 0002596 260.7924  99.2942 14.98321601 76202,6950.219,96.108,573.888,570.28,0.0
55939.0,STARLINK-5918,PAYLOAD,2024-08-01 00:32:12,14.98326845,0.0002906,70.0009,321.1039,266.8259,93.2568,1.0122e-06,-8.1e-07,0.0,0 STARLINK-5918,1 55939U 23037AB  24214.02236890 -.00000081  00000-0  10122-5 0  9990,2 55939  70.0009 321.1039 0002906 266.8259  93.2568 14.98326845 76593,6950.203,96.107,574.087,570.048,0.0
55939.0,STARLINK-5918,PAYLOAD,2024-08-01 13:21:17,14.98326892,0.0002961,70.0016,319.7588,270.6294,89.4526,-1.0572e-05,-2.19e-06,0.0,0 STARLINK-5918,1 55939U 23037AB  24214.55645156 -.00000219  00000-0 -10572-4 0  9999,2 55939  70.0016 319.7588 0002961 270.6294  89.4526 14.98326892 76331,6950.203,96.107,574.125,570.01,0.0
55939.0,STARLINK-5918,PAYLOAD,2024-08-01 16:33:33,14.98331068,0.0002737,70.0016,319.4225,265.7596,94.325,-1.3606e-05,-2.55e-06,0.0,0 STARLINK-5918,1 55939U 23037AB  24214.68996897 -.00000255  00000-0 -13606-4 0  9995,2 55939  70.0016 319.4225 0002737 265.7596  94.3250 14.98331068 76359,6950.19,96.107,573.957,570.152,0.0
55939.0,STARLINK-5918,PAYLOAD,2024-08-02 00:34:13,14.98326603,0.0003189,70.0005,318.5788,271.6006,88.4787,0.00011694,1.302e-05,0.0,0 STARLINK-5918,1 55939U 23037AB  24215.02376748  .00001302  00000-0  11694-3 0  9997,2 55939  70.0005 318.5788 0003189 271.6006  88.4787 14.98326603 76746,6950.203,96.107,574.285,569.852,0.0
55939.0,STARLINK-5918,PAYLOAD,2024-08-02 14:59:25,14.98333433,0.0003127,70.0005,317.0637,270.9364,89.1436,0.00013839,1.559e-05,0.0,0 STARLINK-5918,1 55939U 23037AB  24215.62460427  .00001559  00000-0  13839-3 0  9998,2 55939  70.0005 317.0637 0003127 270.9364  89.1436 14.98333433 76494,6950.182,96.107,574.221,569.874,0.0
55939.0,STARLINK-5918,PAYLOAD,2024-08-02 16:35:33,14.98335121,0.000308,70.0006,316.8954,270.535,89.5456,0.00016457,1.871e-05,0.0,0 STARLINK-5918,1 55939U 23037AB  24215.69136247  .00001871  00000-0  16457-3 0  9991,2 55939  70.0006 316.8954 0003080 270.5350  89.5456 14.98335121 76844,6950.177,96.107,574.183,569.901,0.0
55939.0,STARLINK-5918,PAYLOAD,2024-08-03 15:01:26,14.9833718,0.0002793,70.0009,314.5383,265.4071,94.6769,0.00013317,1.497e-05,0.0,0 STARLINK-5918,1 55939U 23037AB  24216.62600042  .00001497  00000-0  13317-3 0  9990,2 55939  70.0009 314.5383 0002793 265.4071  94.6769 14.98337180 76640,6950.171,96.107,573.977,570.095,0.0
55939.0,STARLINK-5918,PAYLOAD,2024-08-03 16:37:34,14.98337571,0.0002793,70.001,314.3698,265.7254,94.3586,0.00017599,2.008e-05,0.0,0 STARLINK-5918,1 55939U 23037AB  24216.69275875  .00002008  00000-0  17599-3 0  9994,2 55939  70.0010 314.3698 0002793 265.7254  94.3586 14.98337571 76991,6950.169,96.107,573.976,570.093,0.0
55939.0,STARLINK-5918,PAYLOAD,2024-08-04 13:27:19,14.98333956,0.0002795,70.0015,312.1852,263.0675,97.0166,-2.6942e-05,-4.14e-06,0.0,0 STARLINK-5918,1 55939U 23037AB  24217.56064449 -.00000414  00000-0 -26942-4 0  9998,2 55939  70.0015 312.1852 0002795 263.0675  97.0166 14.98333956 77127,6950.181,96.107,573.988,570.103,0.0
55939.0,STARLINK-5918,PAYLOAD,2024-08-04 15:03:27,14.98333682,0.0002661,70.0017,312.0165,261.7839,98.3018,8.36e-06,7e-08,0.0,0 STARLINK-5918,1 55939U 23037AB  24217.62740365  .00000007  00000-0  83600-5 0  9994,2 55939  70.0017 312.0165 0002661 261.7839  98.3018 14.98333682 76792,6950.182,96.107,573.896,570.197,0.0
55939.0,STARLINK-5918,PAYLOAD,2024-08-04 16:39:35,14.98339217,0.0002815,70.0007,311.8464,267.8601,92.2236,2.8345e-05,2.45e-06,0.0,0 STARLINK-5918,1 55939U 23037AB  24217.69415946  .00000245  00000-0  28345-4 0  9993,2 55939  70.0007 311.8464 0002815 267.8601  92.2236 14.98339217 76802,6950.164,96.106,573.986,570.073,0.0
55939.0,STARLINK-5918,PAYLOAD,2024-08-05 15:05:27,14.98345204,0.0002835,70.0006,309.4897,267.4022,92.6813,7.2539e-05,7.73e-06,0.0,0 STARLINK-5918,1 55939U 23037AB  24218.62878947  .00000773  00000-0  72539-4 0  9991,2 55939  70.0006 309.4897 0002835 267.4022  92.6813 14.98345204 77280,6950.146,96.106,573.981,570.041,0.0
55939.0,STARLINK-5918,PAYLOAD,2024-08-06 05:30:41,14.98326581,0.0002113,70.0017,307.975,265.357,94.7348,2.6628e-05,2.25e-06,0.0,0 STARLINK-5918,1 55939U 23037AB  24219.22964221  .00000225  00000-0  26628-4 0  9999,2 55939  70.0017 307.9750 0002113 265.3570  94.7348 14.98326581 77370,6950.203,96.107,573.537,570.6,0.0
55939.0,STARLINK-5918,PAYLOAD,2024-08-06 10:19:06,14.98317692,0.0002418,70.0024,307.4727,250.8825,109.2072,-9.3444e-05,-1.207e-05,0.0,0 STARLINK-5918,1 55939U 23037AB  24219.42993102 -.00001207  00000-0 -93444-4 0  9994,2 55939  70.0024 307.4727 0002418 250.8825 109.2072 14.98317692 77400,6950.231,96.108,573.777,570.415,0.0
55939.0,STARLINK-5918,PAYLOAD,2024-08-06 13:31:22,14.98312926,0.0002453,70.002,307.1348,257.6497,102.4388,-9.968e-05,-1.281e-05,0.0,0 STARLINK-5918,1 55939U 23037AB  24219.56345531 -.00001281  00000-0 -99680-4 0  9996,2 55939  70.0020 307.1348 0002453 257.6497 102.4388 14.98312926 77085,6950.246,96.108,573.816,570.406,0.0
55939.0,STARLINK-5918,PAYLOAD,2024-08-07 11:57:13,14.98336586,0.0002848,70.0007,304.7768,261.0301,99.0535,-1.5291e-05,-2.75e-06,0.0,0 STARLINK-5918,1 55939U 23037AB  24220.49807831 -.00000275  00000-0 -15291-4 0  9994,2 55939  70.0007 304.7768 0002848 261.0301  99.0535 14.98336586 77566,6950.173,96.107,574.017,570.058,0.0
55939.0,STARLINK-5918,PAYLOAD,2024-08-08 13:35:22,14.98329203,0.0003057,70.0003,302.0834,264.1347,95.9463,0.0002026,2.325e-05,0.0,0 STARLINK-5918,1 55939U 23037AB  24221.56623683  .00002325  00000-0  20260-3 0  9991,2 55939  70.0003 302.0834 0003057 264.1347  95.9463 14.98329203 77387,6950.195,96.107,574.185,569.936,0.0
55939.0,STARLINK-5918,PAYLOAD,2024-08-08 15:11:30,14.98330739,0.000305,70.0004,301.9152,264.2489,95.8323,0.00021697,2.497e-05,0.0,0 STARLINK-5918,1 55939U 23037AB  24221.63299564  .00002497  00000-0  21697-3 0  9991,2 55939  70.0004 301.9152 0003050 264.2489  95.8323 14.98330739 77739,6950.191,96.107,574.175,569.936,0.0
55939.0,STARLINK-5918,PAYLOAD,2024-08-09 05:36:43,14.98331438,0.0002612,70.0021,300.4035,241.5334,118.5562,-3.9687e-05,-5.66e-06,0.0,0 STARLINK-5918,1 55939U 23037AB  24222.23384233 -.00000566  00000-0 -39687-4 0  9992,2 55939  70.0021 300.4035 0002612 241.5334 118.5562 14.98331438 77827,6950.188,96.107,573.869,570.238,0.0
55939.0,STARLINK-5918,PAYLOAD,2024-08-09 13:37:24,14.98330333,0.0002825,70.0008,299.5604,262.471,97.6128,-4.6668e-05,-6.5e-06,0.0,0 STARLINK-5918,1 55939U 23037AB  24222.56764363 -.00000650  00000-0 -46668-4 0  9995,2 55939  70.0008 299.5604 0002825 262.4710  97.6128 14.98330333 77534,6950.192,96.107,574.02,570.093,0.0
55939.0,STARLINK-5918,PAYLOAD,2024-08-09 15:13:32,14.98331064,0.0002823,70.0009,299.3921,262.6792,97.4046,-3.7083e-05,-5.35e-06,0.0,0 STARLINK-5918,1 55939U 23037AB  24222.63440296 -.00000535  00000-0 -37083-4 0  9992,2 55939  70.0009 299.3921 0002823 262.6792  97.4046 14.98331064 77545,6950.19,96.107,574.017,570.093,0.0
55939.0,STARLINK-5918,PAYLOAD,2024-08-10 12:03:16,14.98333662,0.0002664,70.0009,297.2026,261.1267,98.9591,5.2846e-05,5.38e-06,0.0,0 STARLINK-5918,1 55939U 23037AB  24223.50227915  .00000538  00000-0  52846-4 0  9995,2 55939  70.0009 297.2026 0002664 261.1267  98.9591 14.98333662 78012,6950.182,96.107,573.898,570.195,0.0
55939.0,STARLINK-5918,PAYLOAD,2024-08-10 13:39:24,14.98334782,0.0002749,70.001,297.0338,264.3839,95.7007,7.7492e-05,8.32e-06,0.0,0 STARLINK-5918,1 55939U 23037AB  24223.56903769  .00000832  00000-0  77492-4 0  9990,2 55939  70.0010 297.0338 0002749 264.3839  95.7007 14.98334782 77685,6950.178,96.107,573.954,570.132,0.0
55939.0,STARLINK-5918,PAYLOAD,2024-08-10 15:15:32,14.98339382,0.0002878,70.0007,296.8683,257.0161,103.0677,7.7623e-05,8.34e-06,0.0,0 STARLINK-5918,1 55939U 23037AB  24223.63579315  .00000834  00000-0  77623-4 0  9992,2 55939  70.0007 296.8683 0002878 257.0161 103.0677 14.98339382 77699,6950.164,96.106,574.029,570.029,0.0
55939.0,STARLINK-5918,PAYLOAD,2024-08-11 10:29:10,14.98322796,0.0002664,70.0012,294.8455,266.7876,93.2978,8.4445e-05,9.15e-06,0.0,0 STARLINK-5918,1 55939U 23037AB  24224.43692551  .00000915  00000-0  84445-4 0  9999,2 55939  70.0012 294.8455 0002664 266.7876  93.2978 14.98322796 78150,6950.215,96.107,573.932,570.229,0.0
55939.0,STARLINK-5918,PAYLOAD,2024-08-11 21:42:05,14.98354857,0.0002667,70.0009,293.6666,271.5309,88.5545,-0.00025001,-3.077e-05,0.0,0 STARLINK-5918,1 55939U 23037AB  24224.90423092 -.00003077  00000-0 -25001-3 0  9999,2 55939  70.0009 293.6666 0002667 271.5309  88.5545 14.98354857 77884,6950.116,96.105,573.835,570.127,0.0
55939.0,STARLINK-5918,PAYLOAD,2024-08-12 04:06:37,14.98339837,0.0002533,70.0007,292.9936,262.931,97.1561,0.00013104,1.471e-05,0.0,0 STARLINK-5918,1 55939U 23037AB  24225.17127231  .00001471  00000-0  13104-3 0  9990,2 55939  70.0007 292.9936 0002533 262.9310  97.1561 14.98339837 78260,6950.162,96.106,573.788,570.267,0.0
